<?xml version="1.0" encoding="UTF-8"?>
<ndm xmlns:xsi="http://www.w3.org/2001/XMLSchema-instance" xsi:noNamespaceSchemaLocation="https://sanaregistry.org/r/ndmxml_unqualified/ndmxml-2.0.0-master-2.0.xsd">
<omm id="CCSDS_OMM_VERS" version="2.0">
<header><CREATION_DATE/><ORIGINATOR/></header><body><segment><metadata><OBJECT_NAME>ORBCOMM FM20</OBJECT_NAME><OBJECT_ID>1998-046D</OBJECT_ID><CENTER_NAME>EARTH</CENTER_NAME><REF_FRAME>TEME</REF_FRAME><TIME_SYSTEM>UTC</TIME_SYSTEM><MEAN_ELEMENT_THEORY>SGP4</MEAN_ELEMENT_THEORY></metadata><data><meanElements><EPOCH>2025-01-06T18:01:42.285504</EPOCH><MEAN_MOTION>14.36576427</MEAN_MOTION><ECCENTRICITY>.0000789</ECCENTRICITY><INCLINATION>44.9924</INCLINATION><RA_OF_ASC_NODE>225.4571</RA_OF_ASC_NODE><ARG_OF_PERICENTER>134.4685</ARG_OF_PERICENTER><MEAN_ANOMALY>225.6227</MEAN_ANOMALY></meanElements><tleParameters><EPHEMERIS_TYPE>0</EPHEMERIS_TYPE><CLASSIFICATION_TYPE>U</CLASSIFICATION_TYPE><NORAD_CAT_ID>25416</NORAD_CAT_ID><ELEMENT_SET_NO>999</ELEMENT_SET_NO><REV_AT_EPOCH>38108</REV_AT_EPOCH><BSTAR>.76172E-3</BSTAR><MEAN_MOTION_DOT>.2118E-4</MEAN_MOTION_DOT><MEAN_MOTION_DDOT>0</MEAN_MOTION_DDOT></tleParameters></data></segment></body></omm>
<omm id="CCSDS_OMM_VERS" version="2.0">
<header><CREATION_DATE/><ORIGINATOR/></header><body><segment><metadata><OBJECT_NAME>ORBCOMM FM16</OBJECT_NAME><OBJECT_ID>1998-046E</OBJECT_ID><CENTER_NAME>EARTH</CENTER_NAME><REF_FRAME>TEME</REF_FRAME><TIME_SYSTEM>UTC</TIME_SYSTEM><MEAN_ELEMENT_THEORY>SGP4</MEAN_ELEMENT_THEORY></metadata><data><meanElements><EPOCH>2025-01-06T13:53:20.507712</EPOCH><MEAN_MOTION>14.38019714</MEAN_MOTION><ECCENTRICITY>.0004298</ECCENTRICITY><INCLINATION>44.9916</INCLINATION><RA_OF_ASC_NODE>219.8270</RA_OF_ASC_NODE><ARG_OF_PERICENTER>191.9831</ARG_OF_PERICENTER><MEAN_ANOMALY>168.0916</MEAN_ANOMALY></meanElements><tleParameters><EPHEMERIS_TYPE>0</EPHEMERIS_TYPE><CLASSIFICATION_TYPE>U</CLASSIFICATION_TYPE><NORAD_CAT_ID>25417</NORAD_CAT_ID><ELEMENT_SET_NO>999</ELEMENT_SET_NO><REV_AT_EPOCH>38098</REV_AT_EPOCH><BSTAR>.10395E-2</BSTAR><MEAN_MOTION_DOT>.3034E-4</MEAN_MOTION_DOT><MEAN_MOTION_DDOT>0</MEAN_MOTION_DDOT></tleParameters></data></segment></body></omm>
<omm id="CCSDS_OMM_VERS" version="2.0">
<header><CREATION_DATE/><ORIGINATOR/></header><body><segment><metadata><OBJECT_NAME>ORBCOMM FM15</OBJECT_NAME><OBJECT_ID>1998-046F</OBJECT_ID><CENTER_NAME>EARTH</CENTER_NAME><REF_FRAME>TEME</REF_FRAME><TIME_SYSTEM>UTC</TIME_SYSTEM><MEAN_ELEMENT_THEORY>SGP4</MEAN_ELEMENT_THEORY></metadata><data><meanElements><EPOCH>2025-01-06T07:23:52.629792</EPOCH><MEAN_MOTION>14.37700606</MEAN_MOTION><ECCENTRICITY>.0003748</ECCENTRICITY><INCLINATION>44.9950</INCLINATION><RA_OF_ASC_NODE>225.7908</RA_OF_ASC_NODE><ARG_OF_PERICENTER>191.8003</ARG_OF_PERICENTER><MEAN_ANOMALY>168.2758</MEAN_ANOMALY></meanElements><tleParameters><EPHEMERIS_TYPE>0</EPHEMERIS_TYPE><CLASSIFICATION_TYPE>U</CLASSIFICATION_TYPE><NORAD_CAT_ID>25418</NORAD_CAT_ID><ELEMENT_SET_NO>999</ELEMENT_SET_NO><REV_AT_EPOCH>38094</REV_AT_EPOCH><BSTAR>.98462E-3</BSTAR><MEAN_MOTION_DOT>.2847E-4</MEAN_MOTION_DOT><MEAN_MOTION_DDOT>0</MEAN_MOTION_DDOT></tleParameters></data></segment></body></omm>
<omm id="CCSDS_OMM_VERS" version="2.0">
<header><CREATION_DATE/><ORIGINATOR/></header><body><segment><metadata><OBJECT_NAME>ORBCOMM FM14</OBJECT_NAME><OBJECT_ID>1998-046G</OBJECT_ID><CENTER_NAME>EARTH</CENTER_NAME><REF_FRAME>TEME</REF_FRAME><TIME_SYSTEM>UTC</TIME_SYSTEM><MEAN_ELEMENT_THEORY>SGP4</MEAN_ELEMENT_THEORY></metadata><data><meanElements><EPOCH>2025-01-06T07:03:33.047136</EPOCH><MEAN_MOTION>14.37997994</MEAN_MOTION><ECCENTRICITY>.0002857</ECCENTRICITY><INCLINATION>44.9938</INCLINATION><RA_OF_ASC_NODE>224.5247</RA_OF_ASC_NODE><ARG_OF_PERICENTER>177.1900</ARG_OF_PERICENTER><MEAN_ANOMALY>182.8965</MEAN_ANOMALY></meanElements><tleParameters><EPHEMERIS_TYPE>0</EPHEMERIS_TYPE><CLASSIFICATION_TYPE>U</CLASSIFICATION_TYPE><NORAD_CAT_ID>25419</NORAD_CAT_ID><ELEMENT_SET_NO>999</ELEMENT_SET_NO><REV_AT_EPOCH>38090</REV_AT_EPOCH><BSTAR>.10385E-2</BSTAR><MEAN_MOTION_DOT>.3029E-4</MEAN_MOTION_DOT><MEAN_MOTION_DDOT>0</MEAN_MOTION_DDOT></tleParameters></data></segment></body></omm>
<omm id="CCSDS_OMM_VERS" version="2.0">
<header><CREATION_DATE/><ORIGINATOR/></header><body><segment><metadata><OBJECT_NAME>ORBCOMM FM13</OBJECT_NAME><OBJECT_ID>1998-046H</OBJECT_ID><CENTER_NAME>EARTH</CENTER_NAME><REF_FRAME>TEME</REF_FRAME><TIME_SYSTEM>UTC</TIME_SYSTEM><MEAN_ELEMENT_THEORY>SGP4</MEAN_ELEMENT_THEORY></metadata><data><meanElements><EPOCH>2025-01-06T13:19:09.110784</EPOCH><MEAN_MOTION>14.36936501</MEAN_MOTION><ECCENTRICITY>.0004776</ECCENTRICITY><INCLINATION>44.9958</INCLINATION><RA_OF_ASC_NODE>229.7949</RA_OF_ASC_NODE><ARG_OF_PERICENTER>176.8905</ARG_OF_PERICENTER><MEAN_ANOMALY>183.1973</MEAN_ANOMALY></meanElements><tleParameters><EPHEMERIS_TYPE>0</EPHEMERIS_TYPE><CLASSIFICATION_TYPE>U</CLASSIFICATION_TYPE><NORAD_CAT_ID>25420</NORAD_CAT_ID><ELEMENT_SET_NO>999</ELEMENT_SET_NO><REV_AT_EPOCH>37998</REV_AT_EPOCH><BSTAR>.85472E-3</BSTAR><MEAN_MOTION_DOT>.2413E-4</MEAN_MOTION_DOT><MEAN_MOTION_DDOT>0</MEAN_MOTION_DDOT></tleParameters></data></segment></body></omm>
<omm id="CCSDS_OMM_VERS" version="2.0">
<header><CREATION_DATE/><ORIGINATOR/></header><body><segment><metadata><OBJECT_NAME>ORBCOMM FM21</OBJECT_NAME><OBJECT_ID>1998-053A</OBJECT_ID><CENTER_NAME>EARTH</CENTER_NAME><REF_FRAME>TEME</REF_FRAME><TIME_SYSTEM>UTC</TIME_SYSTEM><MEAN_ELEMENT_THEORY>SGP4</MEAN_ELEMENT_THEORY></metadata><data><meanElements><EPOCH>2025-01-06T12:42:27.997344</EPOCH><MEAN_MOTION>14.36722591</MEAN_MOTION><ECCENTRICITY>.000073</ECCENTRICITY><INCLINATION>45.0089</INCLINATION><RA_OF_ASC_NODE>314.7118</RA_OF_ASC_NODE><ARG_OF_PERICENTER>353.4530</ARG_OF_PERICENTER><MEAN_ANOMALY>6.6308</MEAN_ANOMALY></meanElements><tleParameters><EPHEMERIS_TYPE>0</EPHEMERIS_TYPE><CLASSIFICATION_TYPE>U</CLASSIFICATION_TYPE><NORAD_CAT_ID>25475</NORAD_CAT_ID><ELEMENT_SET_NO>999</ELEMENT_SET_NO><REV_AT_EPOCH>37399</REV_AT_EPOCH><BSTAR>.10143E-2</BSTAR><MEAN_MOTION_DOT>.2877E-4</MEAN_MOTION_DOT><MEAN_MOTION_DDOT>0</MEAN_MOTION_DDOT></tleParameters></data></segment></body></omm>
<omm id="CCSDS_OMM_VERS" version="2.0">
<header><CREATION_DATE/><ORIGINATOR/></header><body><segment><metadata><OBJECT_NAME>ORBCOMM FM22</OBJECT_NAME><OBJECT_ID>1998-053B</OBJECT_ID><CENTER_NAME>EARTH</CENTER_NAME><REF_FRAME>TEME</REF_FRAME><TIME_SYSTEM>UTC</TIME_SYSTEM><MEAN_ELEMENT_THEORY>SGP4</MEAN_ELEMENT_THEORY></metadata><data><meanElements><EPOCH>2025-01-06T07:49:55.639488</EPOCH><MEAN_MOTION>14.37567343</MEAN_MOTION><ECCENTRICITY>.0001557</ECCENTRICITY><INCLINATION>45.0080</INCLINATION><RA_OF_ASC_NODE>311.7215</RA_OF_ASC_NODE><ARG_OF_PERICENTER>99.4072</ARG_OF_PERICENTER><MEAN_ANOMALY>260.6952</MEAN_ANOMALY></meanElements><tleParameters><EPHEMERIS_TYPE>0</EPHEMERIS_TYPE><CLASSIFICATION_TYPE>U</CLASSIFICATION_TYPE><NORAD_CAT_ID>25476</NORAD_CAT_ID><ELEMENT_SET_NO>999</ELEMENT_SET_NO><REV_AT_EPOCH>37397</REV_AT_EPOCH><BSTAR>.12463E-2</BSTAR><MEAN_MOTION_DOT>.3631E-4</MEAN_MOTION_DOT><MEAN_MOTION_DDOT>0</MEAN_MOTION_DDOT></tleParameters></data></segment></body></omm>
<omm id="CCSDS_OMM_VERS" version="2.0">
<header><CREATION_DATE/><ORIGINATOR/></header><body><segment><metadata><OBJECT_NAME>ORBCOMM FM23</OBJECT_NAME><OBJECT_ID>1998-053C</OBJECT_ID><CENTER_NAME>EARTH</CENTER_NAME><REF_FRAME>TEME</REF_FRAME><TIME_SYSTEM>UTC</TIME_SYSTEM><MEAN_ELEMENT_THEORY>SGP4</MEAN_ELEMENT_THEORY></metadata><data><meanElements><EPOCH>2025-01-06T06:27:28.226016</EPOCH><MEAN_MOTION>14.36835313</MEAN_MOTION><ECCENTRICITY>.0000783</ECCENTRICITY><INCLINATION>45.0088</INCLINATION><RA_OF_ASC_NODE>318.2548</RA_OF_ASC_NODE><ARG_OF_PERICENTER>71.3273</ARG_OF_PERICENTER><MEAN_ANOMALY>288.7660</MEAN_ANOMALY></meanElements><tleParameters><EPHEMERIS_TYPE>0</EPHEMERIS_TYPE><CLASSIFICATION_TYPE>U</CLASSIFICATION_TYPE><NORAD_CAT_ID>25477</NORAD_CAT_ID><ELEMENT_SET_NO>999</ELEMENT_SET_NO><REV_AT_EPOCH>37410</REV_AT_EPOCH><BSTAR>.10976E-2</BSTAR><MEAN_MOTION_DOT>.3132E-4</MEAN_MOTION_DOT><MEAN_MOTION_DDOT>0</MEAN_MOTION_DDOT></tleParameters></data></segment></body></omm>

</ndm>
