ORBCOMM FM20            
1 25416U 98046D   25006.75118386  .00002118  00000+0  76172-3 0  9994
2 25416  44.9924 225.4571 0000789 134.4685 225.6227 14.36576427381084
ORBCOMM FM16            
1 25417U 98046E   25006.57870958  .00003034  00000+0  10395-2 0  9997
2 25417  44.9916 219.8270 0004298 191.9831 168.0916 14.38019714380985
ORBCOMM FM15            
1 25418U 98046F   25006.30824803  .00002847  00000+0  98462-3 0  9990
2 25418  44.9950 225.7908 0003748 191.8003 168.2758 14.37700606380945
ORBCOMM FM14            
1 25419U 98046G   25006.29413249  .00003029  00000+0  10385-2 0  9997
2 25419  44.9938 224.5247 0002857 177.1900 182.8965 14.37997994380904
ORBCOMM FM13            
1 25420U 98046H   25006.55496656  .00002413  00000+0  85472-3 0  9997
2 25420  44.9958 229.7949 0004776 176.8905 183.1973 14.36936501379982
ORBCOMM FM21            
1 25475U 98053A   25006.52949071  .00002877  00000+0  10143-2 0  9992
2 25475  45.0089 314.7118 0000730 353.4530   6.6308 14.36722591373993
ORBCOMM FM22            
1 25476U 98053B   25006.32633842  .00003631  00000+0  12463-2 0  9993
2 25476  45.0080 311.7215 0001557  99.4072 260.6952 14.37567343373974
ORBCOMM FM23            
1 25477U 98053C   25006.26907669  .00003132  00000+0  10976-2 0  9991
2 25477  45.0088 318.2548 0000783  71.3273 288.7660 14.36835313374103
